BEIDOU-2 G1             
1 36287U 10001A   26116.56204001 -.00000289  00000+0  00000+0 0  9990
2 36287   4.1749  60.5468 0003626 295.2294 201.5803  1.00269216 59653
SDO                     
1 36395U 10005A   26115.41578257 -.00000060  00000+0  00000+0 0  9991
2 36395  34.5445  87.1361 0001119  34.5839 139.6162  1.00272610 59532
INTELSAT 16 (IS-16)     
1 36397U 10006A   26116.47889977 -.00000257  00000+0  00000+0 0  9993
2 36397   0.0176 279.8680 0002039 145.6722 245.1504  1.00270165 59136
EWS-G2 (GOES 15)        
1 36411U 10008A   26116.50654655  .00000011  00000+0  00000+0 0  9996
2 36411   1.1417  83.7896 0003975  23.7725 352.5592  1.00272457 59128
ECHOSTAR 14             
1 36499U 10010A   26116.52055078 -.00000012  00000+0  00000+0 0  9993
2 36499   0.0188 250.4958 0001712 158.9339 233.5888  1.00270413 46030
SES-1                   
1 36516U 10016A   26116.47395976 -.00000127  00000+0  00000+0 0  9994
2 36516   0.0240 289.3603 0002591 105.6045 249.1318  1.00272000 58517
ASTRA 3B                
1 36581U 10021A   26116.49865985  .00000126  00000+0  00000+0 0  9994
2 36581   1.3364  84.1416 0003905 319.8590  13.5384  1.00269039 58342
COMSATBW-2              
1 36582U 10021B   26116.32058611  .00000075  00000+0  00000+0 0  9990
2 36582   0.0158 242.2319 0002632 161.9168 298.7636  1.00268743 58430
BEIDOU-2 G3             
1 36590U 10024A   26116.36723258 -.00000144  00000+0  00000+0 0  9990
2 36590   4.3954  61.7181 0008549 336.9021  27.5910  1.00269965 58256
BADR-5                  
1 36592U 10025A   26116.49909321  .00000133  00000+0  00000+0 0  9991
2 36592   0.0641 101.5861 0003111 337.4221 341.1432  1.00272695 52690
COMS 1                  
1 36744U 10032A   26116.37676595 -.00000353  00000+0  00000+0 0  9994
2 36744   4.6739  76.0456 0001050 308.9312  93.1775  1.00272579 50577
ARABSAT-5A              
1 36745U 10032B   26116.50004654  .00000141  00000+0  00000+0 0  9995
2 36745   0.0727  48.1891 0004345  15.1236   1.7113  1.00269386 58122
ECHOSTAR 15             
1 36792U 10034A   26116.51633595  .00000000  00000+0  00000+0 0  9996
2 36792   0.0164 258.6609 0002007 135.1376 247.8010  1.00271374 57808
NILESAT 201             
1 36830U 10037A   26116.34998583 -.00000070  00000+0  00000+0 0  9992
2 36830   0.0333 125.9188 0002820 280.9662 286.4936  1.00270367 57859
RASCOM-QAF 1R           
1 36831U 10037B   26116.35197919  .00000006  00000+0  00000+0 0  9996
2 36831   0.0144 257.6295 0006628 136.6794 309.6668  1.00270407 57782
AEHF-1 (USA 214)        
1 36868U 10039A   26116.49995986  .00000141  00000+0  00000+0 0  9993
2 36868   8.0942  68.7227 0004268 315.4570  40.3229  1.00277092 53133
ZHONGXING-6A            
1 37150U 10042A   26116.31072769 -.00000264  00000+0  00000+0 0  9995
2 37150   4.0945  77.8516 0003521 271.8196 131.3298  0.99706689 57361
